{"fetched_at":"2026-07-17T17:37:55.179Z","source":"https://celestrak.org/NORAD/elements/gp.php?GROUP=planet&FORMAT=JSON","constellation":"skysat","records":[{"OBJECT_NAME":"SKYSAT-A","OBJECT_ID":"2013-066C","EPOCH":"2026-07-17T02:00:20.852352","CLASSIFICATION_TYPE":"U","MEAN_MOTION":15.13121185,"ECCENTRICITY":0.00206372,"INCLINATION":97.3801,"RA_OF_ASC_NODE":246.5281,"ARG_OF_PERICENTER":206.5952,"MEAN_ANOMALY":153.4222,"EPHEMERIS_TYPE":0,"NORAD_CAT_ID":39418,"ELEMENT_SET_NO":999,"REV_AT_EPOCH":69300,"BSTAR":0.000088285304,"MEAN_MOTION_DOT":0.00001507,"MEAN_MOTION_DDOT":0},{"OBJECT_NAME":"SKYSAT-B","OBJECT_ID":"2014-037D","EPOCH":"2026-07-16T20:18:29.104416","CLASSIFICATION_TYPE":"U","MEAN_MOTION":14.88094091,"ECCENTRICITY":0.00057045,"INCLINATION":98.3854,"RA_OF_ASC_NODE":158.5062,"ARG_OF_PERICENTER":167.7385,"MEAN_ANOMALY":192.397,"EPHEMERIS_TYPE":0,"NORAD_CAT_ID":40072,"ELEMENT_SET_NO":999,"REV_AT_EPOCH":65037,"BSTAR":0.000072002736,"MEAN_MOTION_DOT":0.00000601,"MEAN_MOTION_DDOT":0},{"OBJECT_NAME":"SKYSAT-C1","OBJECT_ID":"2016-040C","EPOCH":"2026-07-17T01:01:50.629440","CLASSIFICATION_TYPE":"U","MEAN_MOTION":15.36766876,"ECCENTRICITY":0.00002619,"INCLINATION":96.9547,"RA_OF_ASC_NODE":228.151,"ARG_OF_PERICENTER":236.3178,"MEAN_ANOMALY":123.8043,"EPHEMERIS_TYPE":0,"NORAD_CAT_ID":41601,"ELEMENT_SET_NO":999,"REV_AT_EPOCH":56245,"BSTAR":0.00014289609,"MEAN_MOTION_DOT":0.00005058,"MEAN_MOTION_DDOT":0},{"OBJECT_NAME":"SKYSAT-C4","OBJECT_ID":"2016-058B","EPOCH":"2026-07-16T23:35:12.841728","CLASSIFICATION_TYPE":"U","MEAN_MOTION":15.49473911,"ECCENTRICITY":0.0003474,"INCLINATION":96.9161,"RA_OF_ASC_NODE":218.5236,"ARG_OF_PERICENTER":115.0118,"MEAN_ANOMALY":245.1496,"EPHEMERIS_TYPE":0,"NORAD_CAT_ID":41771,"ELEMENT_SET_NO":999,"REV_AT_EPOCH":55008,"BSTAR":0.00018583763,"MEAN_MOTION_DOT":0.0001014,"MEAN_MOTION_DDOT":0},{"OBJECT_NAME":"SKYSAT-C5","OBJECT_ID":"2016-058C","EPOCH":"2026-07-16T15:31:09.401376","CLASSIFICATION_TYPE":"U","MEAN_MOTION":15.33730928,"ECCENTRICITY":0.00027071,"INCLINATION":97.0452,"RA_OF_ASC_NODE":236.9643,"ARG_OF_PERICENTER":156.7043,"MEAN_ANOMALY":203.4323,"EPHEMERIS_TYPE":0,"NORAD_CAT_ID":41772,"ELEMENT_SET_NO":999,"REV_AT_EPOCH":54826,"BSTAR":0.00012420733,"MEAN_MOTION_DOT":0.00003977,"MEAN_MOTION_DDOT":0},{"OBJECT_NAME":"SKYSAT-C2","OBJECT_ID":"2016-058D","EPOCH":"2026-07-17T07:07:48.027360","CLASSIFICATION_TYPE":"U","MEAN_MOTION":15.42708898,"ECCENTRICITY":0.00011135,"INCLINATION":97.0158,"RA_OF_ASC_NODE":219.2705,"ARG_OF_PERICENTER":343.1238,"MEAN_ANOMALY":16.9973,"EPHEMERIS_TYPE":0,"NORAD_CAT_ID":41773,"ELEMENT_SET_NO":999,"REV_AT_EPOCH":54969,"BSTAR":0.00015146324,"MEAN_MOTION_DOT":0.00006528,"MEAN_MOTION_DDOT":0},{"OBJECT_NAME":"SKYSAT-C3","OBJECT_ID":"2016-058E","EPOCH":"2026-07-17T00:54:03.865536","CLASSIFICATION_TYPE":"U","MEAN_MOTION":15.5376165,"ECCENTRICITY":0.00026234,"INCLINATION":96.8991,"RA_OF_ASC_NODE":227.7582,"ARG_OF_PERICENTER":130.7873,"MEAN_ANOMALY":229.361,"EPHEMERIS_TYPE":0,"NORAD_CAT_ID":41774,"ELEMENT_SET_NO":999,"REV_AT_EPOCH":55074,"BSTAR":0.0002266722,"MEAN_MOTION_DOT":0.00014444,"MEAN_MOTION_DDOT":0},{"OBJECT_NAME":"SKYSAT-C11","OBJECT_ID":"2017-068A","EPOCH":"2026-07-16T23:23:07.127520","CLASSIFICATION_TYPE":"U","MEAN_MOTION":15.59388848,"ECCENTRICITY":0.00011959,"INCLINATION":97.4385,"RA_OF_ASC_NODE":348.1412,"ARG_OF_PERICENTER":155.9503,"MEAN_ANOMALY":204.181,"EPHEMERIS_TYPE":0,"NORAD_CAT_ID":42987,"ELEMENT_SET_NO":999,"REV_AT_EPOCH":48788,"BSTAR":0.00022542888,"MEAN_MOTION_DOT":0.00017693,"MEAN_MOTION_DDOT":0},{"OBJECT_NAME":"SKYSAT-C10","OBJECT_ID":"2017-068B","EPOCH":"2026-07-16T21:21:43.875360","CLASSIFICATION_TYPE":"U","MEAN_MOTION":15.35136658,"ECCENTRICITY":0.00014923,"INCLINATION":97.4545,"RA_OF_ASC_NODE":335.0424,"ARG_OF_PERICENTER":111.5176,"MEAN_ANOMALY":248.6227,"EPHEMERIS_TYPE":0,"NORAD_CAT_ID":42988,"ELEMENT_SET_NO":999,"REV_AT_EPOCH":48691,"BSTAR":0.00017053822,"MEAN_MOTION_DOT":0.00005733,"MEAN_MOTION_DDOT":0},{"OBJECT_NAME":"SKYSAT-C9","OBJECT_ID":"2017-068C","EPOCH":"2026-07-16T21:31:05.339712","CLASSIFICATION_TYPE":"U","MEAN_MOTION":15.42239505,"ECCENTRICITY":0.0008498,"INCLINATION":97.4465,"RA_OF_ASC_NODE":336.2721,"ARG_OF_PERICENTER":39.2579,"MEAN_ANOMALY":320.9283,"EPHEMERIS_TYPE":0,"NORAD_CAT_ID":42989,"ELEMENT_SET_NO":999,"REV_AT_EPOCH":48733,"BSTAR":0.0001705472,"MEAN_MOTION_DOT":0.00007246,"MEAN_MOTION_DDOT":0},{"OBJECT_NAME":"SKYSAT-C8","OBJECT_ID":"2017-068D","EPOCH":"2026-07-17T08:04:27.365376","CLASSIFICATION_TYPE":"U","MEAN_MOTION":15.37516339,"ECCENTRICITY":0.00012384,"INCLINATION":97.4563,"RA_OF_ASC_NODE":335.4097,"ARG_OF_PERICENTER":104.0587,"MEAN_ANOMALY":256.0795,"EPHEMERIS_TYPE":0,"NORAD_CAT_ID":42990,"ELEMENT_SET_NO":999,"REV_AT_EPOCH":48694,"BSTAR":0.0001566432,"MEAN_MOTION_DOT":0.0000568,"MEAN_MOTION_DDOT":0},{"OBJECT_NAME":"SKYSAT-C7","OBJECT_ID":"2017-068E","EPOCH":"2026-07-17T07:56:36.587328","CLASSIFICATION_TYPE":"U","MEAN_MOTION":15.37466247,"ECCENTRICITY":0.000558,"INCLINATION":97.4574,"RA_OF_ASC_NODE":336.3959,"ARG_OF_PERICENTER":13.989,"MEAN_ANOMALY":346.1508,"EPHEMERIS_TYPE":0,"NORAD_CAT_ID":42991,"ELEMENT_SET_NO":999,"REV_AT_EPOCH":48700,"BSTAR":0.00015111353,"MEAN_MOTION_DOT":0.00005469,"MEAN_MOTION_DDOT":0},{"OBJECT_NAME":"SKYSAT-C6","OBJECT_ID":"2017-068F","EPOCH":"2026-07-16T22:53:50.652672","CLASSIFICATION_TYPE":"U","MEAN_MOTION":15.34187293,"ECCENTRICITY":0.00050717,"INCLINATION":97.4611,"RA_OF_ASC_NODE":335.859,"ARG_OF_PERICENTER":85.1818,"MEAN_ANOMALY":275.0004,"EPHEMERIS_TYPE":0,"NORAD_CAT_ID":42992,"ELEMENT_SET_NO":999,"REV_AT_EPOCH":48688,"BSTAR":0.00014802371,"MEAN_MOTION_DOT":0.00004818,"MEAN_MOTION_DDOT":0},{"OBJECT_NAME":"SKYSAT-C12","OBJECT_ID":"2018-099AR","EPOCH":"2026-07-17T03:01:59.216448","CLASSIFICATION_TYPE":"U","MEAN_MOTION":15.49827865,"ECCENTRICITY":0.00052048,"INCLINATION":96.9251,"RA_OF_ASC_NODE":220.1765,"ARG_OF_PERICENTER":66.0039,"MEAN_ANOMALY":294.1758,"EPHEMERIS_TYPE":0,"NORAD_CAT_ID":43797,"ELEMENT_SET_NO":999,"REV_AT_EPOCH":42649,"BSTAR":0.00018210814,"MEAN_MOTION_DOT":0.00010062,"MEAN_MOTION_DDOT":0}]}
